start=new Date('2021-11-29T00:00:00.000Z').valueOf();
sats=[{"RA_OF_ASC_NODE":"54.4029","MEAN_ANOMALY":"286.0849","COUNTRY_CODE":"US","ECCENTRICITY":"0.00013620","LAUNCH_DATE":"2020-10-18","MEAN_MOTION_DOT":"0.00000794","TLE_LINE1":"1 46713U 20073AV  21332.53797881  .00000794  00000-0  72153-4 0  9994","DECAY_DATE":null,"FILE":"3226217","CENTER_NAME":"EARTH","EPHEMERIS_TYPE":"0","OBJECT_NAME":"STARLINK-1815","EPOCH":"2021-11-28T12:54:41.369184","INCLINATION":"53.0567","TIME_SYSTEM":"UTC","TLE_LINE2":"2 46713  53.0567  54.4029 0001362  74.0289 286.0849 15.06405928 61672","SEMIMAJOR_AXIS":"6925.330","NORAD_CAT_ID":"46713","OBJECT_TYPE":"PAYLOAD","CLASSIFICATION_TYPE":"U","OBJECT_ID":"2020-073AV","MEAN_MOTION":"15.06405928","APOAPSIS":"548.139","PERIOD":"95.592","MEAN_ELEMENT_THEORY":"SGP4","GP_ID":"190659091","ELEMENT_SET_NO":"999","REV_AT_EPOCH":"6167","RCS_SIZE":"LARGE","BSTAR":"0.00007215300000","REF_FRAME":"TEME","SITE":"AFETR","ARG_OF_PERICENTER":"74.0289","MEAN_MOTION_DDOT":"0.0000000000000","PERIAPSIS":"546.252"},{"BSTAR":"0.00007245600000","RCS_SIZE":"LARGE","PERIAPSIS":"546.277","REF_FRAME":"TEME","SITE":"AFETR","MEAN_MOTION_DDOT":"0.0000000000000","ARG_OF_PERICENTER":"74.3923","REV_AT_EPOCH":"6173","GP_ID":"190685376","ELEMENT_SET_NO":"999","OBJECT_ID":"2020-073AW","MEAN_MOTION":"15.06406064","CLASSIFICATION_TYPE":"U","PERIOD":"95.592","MEAN_ELEMENT_THEORY":"SGP4","APOAPSIS":"548.113","NORAD_CAT_ID":"46714","OBJECT_TYPE":"PAYLOAD","SEMIMAJOR_AXIS":"6925.330","TLE_LINE2":"2 46714  53.0571  52.6537 0001325  74.3923 285.7212 15.06406064 61738","EPHEMERIS_TYPE":"0","CENTER_NAME":"EARTH","INCLINATION":"53.0571","TIME_SYSTEM":"UTC","EPOCH":"2021-11-28T22:12:00.235008","OBJECT_NAME":"STARLINK-1816","DECAY_DATE":null,"TLE_LINE1":"1 46714U 20073AW  21332.92500272  .00000798  00000-0  72456-4 0  9994","FILE":"3226391","RA_OF_ASC_NODE":"52.6537","MEAN_ANOMALY":"285.7212","LAUNCH_DATE":"2020-10-18","MEAN_MOTION_DOT":"0.00000798","COUNTRY_CODE":"US","ECCENTRICITY":"0.00013250"},{"PERIOD":"95.592","MEAN_ELEMENT_THEORY":"SGP4","APOAPSIS":"548.017","OBJECT_ID":"2020-073AX","MEAN_MOTION":"15.06407354","CLASSIFICATION_TYPE":"U","OBJECT_TYPE":"PAYLOAD","NORAD_CAT_ID":"46715","PERIAPSIS":"546.366","REF_FRAME":"TEME","MEAN_MOTION_DDOT":"0.0000000000000","SITE":"AFETR","ARG_OF_PERICENTER":"68.5433","BSTAR":"0.00004402300000","RCS_SIZE":"LARGE","REV_AT_EPOCH":"6173","GP_ID":"190686627","ELEMENT_SET_NO":"999","FILE":"3226391","DECAY_DATE":null,"TLE_LINE1":"1 46715U 20073AX  21332.92131914  .00000375  00000-0  44023-4 0  9998","LAUNCH_DATE":"2020-10-18","MEAN_MOTION_DOT":"0.00000375","ECCENTRICITY":"0.00011920","COUNTRY_CODE":"US","RA_OF_ASC_NODE":"52.6735","MEAN_ANOMALY":"291.5683","SEMIMAJOR_AXIS":"6925.326","TLE_LINE2":"2 46715  53.0564  52.6735 0001192  68.5433 291.5683 15.06407354 61734","INCLINATION":"53.0564","TIME_SYSTEM":"UTC","EPOCH":"2021-11-28T22:06:41.973696","OBJECT_NAME":"STARLINK-1817","EPHEMERIS_TYPE":"0","CENTER_NAME":"EARTH"},{"TLE_LINE2":"2 46716  53.0555  68.8024 0001060  47.0921 313.0157 15.06397157 61480","SEMIMAJOR_AXIS":"6925.357","OBJECT_NAME":"STARLINK-1818","EPOCH":"2021-11-28T16:06:26.051904","TIME_SYSTEM":"UTC","INCLINATION":"53.0555","CENTER_NAME":"EARTH","EPHEMERIS_TYPE":"0","FILE":"3226391","TLE_LINE1":"1 46716U 20073AY  21332.67113486  .00001042  00000-0  88817-4 0  9996","DECAY_DATE":null,"ECCENTRICITY":"0.00010600","COUNTRY_CODE":"US","LAUNCH_DATE":"2020-10-18","MEAN_MOTION_DOT":"0.00001042","MEAN_ANOMALY":"313.0157","RA_OF_ASC_NODE":"68.8024","MEAN_MOTION_DDOT":"0.0000000000000","SITE":"AFETR","ARG_OF_PERICENTER":"47.0921","REF_FRAME":"TEME","PERIAPSIS":"546.488","RCS_SIZE":"LARGE","BSTAR":"0.00008881700000","ELEMENT_SET_NO":"999","GP_ID":"190686876","REV_AT_EPOCH":"6148","APOAPSIS":"547.956","MEAN_ELEMENT_THEORY":"SGP4","PERIOD":"95.592","CLASSIFICATION_TYPE":"U","MEAN_MOTION":"15.06397157","OBJECT_ID":"2020-073AY","OBJECT_TYPE":"PAYLOAD","NORAD_CAT_ID":"46716"},{"CLASSIFICATION_TYPE":"U","MEAN_MOTION":"15.06392976","OBJECT_ID":"2020-073AZ","APOAPSIS":"548.015","PERIOD":"95.593","MEAN_ELEMENT_THEORY":"SGP4","NORAD_CAT_ID":"46717","OBJECT_TYPE":"PAYLOAD","RCS_SIZE":"LARGE","BSTAR":"0.00004394800000","SITE":"AFETR","ARG_OF_PERICENTER":"71.1757","MEAN_MOTION_DDOT":"0.0000000000000","REF_FRAME":"TEME","PERIAPSIS":"546.455","ELEMENT_SET_NO":"999","GP_ID":"190685626","REV_AT_EPOCH":"6168","TLE_LINE1":"1 46717U 20073AZ  21332.60802074  .00000373  00000-0  43948-4 0  9990","DECAY_DATE":null,"FILE":"3226391","MEAN_ANOMALY":"288.9354","RA_OF_ASC_NODE":"54.0682","COUNTRY_CODE":"US","ECCENTRICITY":"0.00011260","MEAN_MOTION_DOT":"0.00000373","LAUNCH_DATE":"2020-10-18","TLE_LINE2":"2 46717  53.0562  54.0682 0001126  71.1757 288.9354 15.06392976 61689","SEMIMAJOR_AXIS":"6925.370","CENTER_NAME":"EARTH","EPHEMERIS_TYPE":"0","OBJECT_NAME":"STARLINK-1820","EPOCH":"2021-11-28T14:35:32.991936","TIME_SYSTEM":"UTC","INCLINATION":"53.0562"},{"OBJECT_TYPE":"PAYLOAD","NORAD_CAT_ID":"46718","APOAPSIS":"548.262","MEAN_ELEMENT_THEORY":"SGP4","PERIOD":"95.593","CLASSIFICATION_TYPE":"U","OBJECT_ID":"2020-073BA","MEAN_MOTION":"15.06388123","GP_ID":"190685876","ELEMENT_SET_NO":"999","REV_AT_EPOCH":"6148","REF_FRAME":"TEME","MEAN_MOTION_DDOT":"0.0000000000000","SITE":"AFETR","ARG_OF_PERICENTER":"87.8174","PERIAPSIS":"546.238","RCS_SIZE":"LARGE","BSTAR":"0.00000668620000","COUNTRY_CODE":"US","ECCENTRICITY":"0.00014610","MEAN_MOTION_DOT":"-0.00000182","LAUNCH_DATE":"2020-10-18","RA_OF_ASC_NODE":"68.9044","MEAN_ANOMALY":"272.2982","FILE":"3226391","TLE_LINE1":"1 46718U 20073BA  21332.64902797 -.00000182  00000-0  66862-5 0  9998","DECAY_DATE":null,"EPOCH":"2021-11-28T15:34:36.016608","OBJECT_NAME":"STARLINK-1821","INCLINATION":"53.0567","TIME_SYSTEM":"UTC","CENTER_NAME":"EARTH","EPHEMERIS_TYPE":"0","TLE_LINE2":"2 46718  53.0567  68.9044 0001461  87.8174 272.2982 15.06388123 61480","SEMIMAJOR_AXIS":"6925.385"},{"CLASSIFICATION_TYPE":"U","OBJECT_ID":"2020-073BB","MEAN_MOTION":"15.06402095","APOAPSIS":"547.432","PERIOD":"95.592","MEAN_ELEMENT_THEORY":"SGP4","NORAD_CAT_ID":"46719","OBJECT_TYPE":"PAYLOAD","RCS_SIZE":"LARGE","BSTAR":"0.00017189000000","REF_FRAME":"TEME","MEAN_MOTION_DDOT":"0.0000000000000","SITE":"AFETR","ARG_OF_PERICENTER":"69.8170","PERIAPSIS":"546.983","GP_ID":"190686128","ELEMENT_SET_NO":"999","REV_AT_EPOCH":"6201","TLE_LINE1":"1 46719U 20073BB  21332.89735601  .00002280  00000-0  17189-3 0  9990","DECAY_DATE":null,"FILE":"3226391","RA_OF_ASC_NODE":"32.7751","MEAN_ANOMALY":"290.2854","COUNTRY_CODE":"US","ECCENTRICITY":"0.00003240","MEAN_MOTION_DOT":"0.00002280","LAUNCH_DATE":"2020-10-18","TLE_LINE2":"2 46719  53.0570  32.7751 0000324  69.8170 290.2854 15.06402095 62015","SEMIMAJOR_AXIS":"6925.342","CENTER_NAME":"EARTH","EPHEMERIS_TYPE":"0","OBJECT_NAME":"STARLINK-1822","EPOCH":"2021-11-28T21:32:11.559264","INCLINATION":"53.0570","TIME_SYSTEM":"UTC"},{"MEAN_ANOMALY":"278.7239","RA_OF_ASC_NODE":"13.6865","LAUNCH_DATE":"2020-10-18","MEAN_MOTION_DOT":"0.00045530","ECCENTRICITY":"0.00036700","COUNTRY_CODE":"US","DECAY_DATE":null,"TLE_LINE1":"1 46720U 20073BC  21332.82392406  .00045530  00000-0  97482-3 0  9996","FILE":"3226391","EPHEMERIS_TYPE":"0","CENTER_NAME":"EARTH","TIME_SYSTEM":"UTC","INCLINATION":"53.0558","EPOCH":"2021-11-28T19:46:27.038784","OBJECT_NAME":"STARLINK-1823","SEMIMAJOR_AXIS":"6811.425","TLE_LINE2":"2 46720  53.0558  13.6865 0003670  81.4182 278.7239 15.44350332 62271","NORAD_CAT_ID":"46720","OBJECT_TYPE":"PAYLOAD","MEAN_MOTION":"15.44350332","OBJECT_ID":"2020-073BC","CLASSIFICATION_TYPE":"U","PERIOD":"93.243","MEAN_ELEMENT_THEORY":"SGP4","APOAPSIS":"435.789","REV_AT_EPOCH":"6227","ELEMENT_SET_NO":"999","GP_ID":"190686377","BSTAR":"0.00097482000000","RCS_SIZE":"LARGE","PERIAPSIS":"430.790","ARG_OF_PERICENTER":"81.4182","SITE":"AFETR","MEAN_MOTION_DDOT":"0.0000000000000","REF_FRAME":"TEME"},{"ELEMENT_SET_NO":"999","GP_ID":"190685127","REV_AT_EPOCH":"6148","SITE":"AFETR","ARG_OF_PERICENTER":"78.8852","MEAN_MOTION_DDOT":"0.0000000000000","REF_FRAME":"TEME","PERIAPSIS":"546.426","RCS_SIZE":"LARGE","BSTAR":"0.00004587400000","OBJECT_TYPE":"PAYLOAD","NORAD_CAT_ID":"46722","APOAPSIS":"548.005","PERIOD":"95.592","MEAN_ELEMENT_THEORY":"SGP4","CLASSIFICATION_TYPE":"U","MEAN_MOTION":"15.06399425","OBJECT_ID":"2020-073BE","OBJECT_NAME":"STARLINK-1825","EPOCH":"2021-11-28T16:11:44.286432","TIME_SYSTEM":"UTC","INCLINATION":"53.0565","CENTER_NAME":"EARTH","EPHEMERIS_TYPE":"0","TLE_LINE2":"2 46722  53.0565  68.7698 0001140  78.8852 281.2265 15.06399425 61484","SEMIMAJOR_AXIS":"6925.350","ECCENTRICITY":"0.00011400","COUNTRY_CODE":"US","LAUNCH_DATE":"2020-10-18","MEAN_MOTION_DOT":"0.00000402","MEAN_ANOMALY":"281.2265","RA_OF_ASC_NODE":"68.7698","FILE":"3226391","TLE_LINE1":"1 46722U 20073BE  21332.67481813  .00000402  00000-0  45874-4 0  9990","DECAY_DATE":null},{"DECAY_DATE":null,"TLE_LINE1":"1 46723U 20073BF  21332.89966885 -.00000085  00000-0  13170-4 0  9994","FILE":"3226391","RA_OF_ASC_NODE":"27.7724","MEAN_ANOMALY":"285.4899","LAUNCH_DATE":"2020-10-18","MEAN_MOTION_DOT":"-0.00000085","COUNTRY_CODE":"US","ECCENTRICITY":"0.00014280","SEMIMAJOR_AXIS":"6925.347","TLE_LINE2":"2 46723  53.0573  27.7724 0001428  74.6247 285.4899 15.06400536 62082","EPHEMERIS_TYPE":"0","CENTER_NAME":"EARTH","INCLINATION":"53.0573","TIME_SYSTEM":"UTC","EPOCH":"2021-11-28T21:35:31.388640","OBJECT_NAME":"STARLINK-1826","OBJECT_ID":"2020-073BF","MEAN_MOTION":"15.06400536","CLASSIFICATION_TYPE":"U","PERIOD":"95.592","MEAN_ELEMENT_THEORY":"SGP4","APOAPSIS":"548.201","NORAD_CAT_ID":"46723","OBJECT_TYPE":"PAYLOAD","BSTAR":"0.00001317000000","RCS_SIZE":"LARGE","PERIAPSIS":"546.223","REF_FRAME":"TEME","SITE":"AFETR","MEAN_MOTION_DDOT":"0.0000000000000","ARG_OF_PERICENTER":"74.6247","REV_AT_EPOCH":"6208","GP_ID":"190685377","ELEMENT_SET_NO":"999"}];
